STARLINK-1278
1 45408U 20019BA  26090.91671296  .00082822  00000+0  10132-2 0  9991
2 45408  53.0447  22.4655 0003426 127.4850 244.8521 15.59704935  5922
